JY1SAT (JO-97)          
1 43803U 18099AX  26068.68634132  .00017774  00000+0  60804-3 0  9996
2 43803  97.4249 131.3625 0004723 256.6795 103.3919 15.30302628398390
STARLINK-31601          
1 59209U 24046J   26068.55770725 -.00000281  00000+0  26407-5 0  9996
2 59209  53.1607 155.6443 0001081  89.9290 270.1835 15.30182139113031
